[{"OBJECT_NAME":"SL-16 R/B","OBJECT_ID":"1993-059B","EPOCH":"2026-03-31T01:47:37.233600","MEAN_MOTION":14.17234538,"ECCENTRICITY":0.00172963,"INCLINATION":70.9914,"RA_OF_ASC_NODE":326.0327,"ARG_OF_PERICENTER":185.3137,"MEAN_ANOMALY":174.7806,"EPHEMERIS_TYPE":0,"CLASSIFICATION_TYPE":"U","NORAD_CAT_ID":22803,"ELEMENT_SET_NO":999,"REV_AT_EPOCH":68256,"BSTAR":-5.3684701e-5,"MEAN_MOTION_DOT":-1.57e-6,"MEAN_MOTION_DDOT":0},{"OBJECT_NAME":"ARIANE 40 R/B","OBJECT_ID":"1993-061H","EPOCH":"2026-03-31T09:58:44.008032","MEAN_MOTION":14.32872678,"ECCENTRICITY":0.0010146,"INCLINATION":98.4876,"RA_OF_ASC_NODE":158.8705,"ARG_OF_PERICENTER":214.2956,"MEAN_ANOMALY":145.7574,"EPHEMERIS_TYPE":0,"CLASSIFICATION_TYPE":"U","NORAD_CAT_ID":22830,"ELEMENT_SET_NO":999,"REV_AT_EPOCH":69721,"BSTAR":0.00011495071,"MEAN_MOTION_DOT":2.71e-6,"MEAN_MOTION_DDOT":0},{"OBJECT_NAME":"COSMOS 2278","OBJECT_ID":"1994-023A","EPOCH":"2026-03-31T12:31:44.263776","MEAN_MOTION":14.14374929,"ECCENTRICITY":0.00092413,"INCLINATION":71.051,"RA_OF_ASC_NODE":129.423,"ARG_OF_PERICENTER":340.2097,"MEAN_ANOMALY":19.8665,"EPHEMERIS_TYPE":0,"CLASSIFICATION_TYPE":"U","NORAD_CAT_ID":23087,"ELEMENT_SET_NO":999,"REV_AT_EPOCH":64789,"BSTAR":-3.452393e-5,"MEAN_MOTION_DOT":-1.13e-6,"MEAN_MOTION_DDOT":0},{"OBJECT_NAME":"SL-16 R/B","OBJECT_ID":"1994-023B","EPOCH":"2026-03-31T13:24:31.420800","MEAN_MOTION":14.1501745,"ECCENTRICITY":0.0005509,"INCLINATION":71.0025,"RA_OF_ASC_NODE":24.9584,"ARG_OF_PERICENTER":265.8842,"MEAN_ANOMALY":94.1651,"EPHEMERIS_TYPE":0,"CLASSIFICATION_TYPE":"U","NORAD_CAT_ID":23088,"ELEMENT_SET_NO":999,"REV_AT_EPOCH":64918,"BSTAR":0.00018134,"MEAN_MOTION_DOT":3.04e-6,"MEAN_MOTION_DDOT":0},{"OBJECT_NAME":"SL-16 R/B","OBJECT_ID":"1994-074B","EPOCH":"2026-03-31T12:34:56.226432","MEAN_MOTION":14.79433277,"ECCENTRICITY":0.0007474,"INCLINATION":97.7076,"RA_OF_ASC_NODE":120.4548,"ARG_OF_PERICENTER":140.6216,"MEAN_ANOMALY":26.3571,"EPHEMERIS_TYPE":0,"CLASSIFICATION_TYPE":"U","NORAD_CAT_ID":23343,"ELEMENT_SET_NO":999,"REV_AT_EPOCH":69047,"BSTAR":9.4883494e-5,"MEAN_MOTION_DOT":6.59e-6,"MEAN_MOTION_DDOT":0},{"OBJECT_NAME":"SL-16 R/B","OBJECT_ID":"1994-077B","EPOCH":"2026-03-31T21:14:30.928416","MEAN_MOTION":14.15568905,"ECCENTRICITY":0.0001773,"INCLINATION":70.9828,"RA_OF_ASC_NODE":305.7959,"ARG_OF_PERICENTER":194.5976,"MEAN_ANOMALY":165.5096,"EPHEMERIS_TYPE":0,"CLASSIFICATION_TYPE":"U","NORAD_CAT_ID":23405,"ELEMENT_SET_NO":999,"REV_AT_EPOCH":61937,"BSTAR":-4.8686e-5,"MEAN_MOTION_DOT":-1.43e-6,"MEAN_MOTION_DDOT":0},{"OBJECT_NAME":"ARIANE 40+ R/B","OBJECT_ID":"1995-021B","EPOCH":"2026-03-31T11:45:03.413376","MEAN_MOTION":14.39788277,"ECCENTRICITY":0.00078961,"INCLINATION":98.4459,"RA_OF_ASC_NODE":161.6727,"ARG_OF_PERICENTER":80.3952,"MEAN_ANOMALY":290.4651,"EPHEMERIS_TYPE":0,"CLASSIFICATION_TYPE":"U","NORAD_CAT_ID":23561,"ELEMENT_SET_NO":999,"REV_AT_EPOCH":62238,"BSTAR":0.00013541534,"MEAN_MOTION_DOT":3.81e-6,"MEAN_MOTION_DDOT":0},{"OBJECT_NAME":"SL-16 R/B","OBJECT_ID":"1995-058B","EPOCH":"2026-03-31T12:57:19.812960","MEAN_MOTION":14.15498354,"ECCENTRICITY":0.00101847,"INCLINATION":71.0197,"RA_OF_ASC_NODE":134.3839,"ARG_OF_PERICENTER":85.5031,"MEAN_ANOMALY":274.7255,"EPHEMERIS_TYPE":0,"CLASSIFICATION_TYPE":"U","NORAD_CAT_ID":23705,"ELEMENT_SET_NO":999,"REV_AT_EPOCH":57094,"BSTAR":-6.8168581e-5,"MEAN_MOTION_DOT":-1.81e-6,"MEAN_MOTION_DDOT":0},{"OBJECT_NAME":"SL-16 R/B","OBJECT_ID":"1996-051B","EPOCH":"2026-03-31T13:17:42.361728","MEAN_MOTION":14.12422119,"ECCENTRICITY":0.0013325,"INCLINATION":70.7583,"RA_OF_ASC_NODE":128.9624,"ARG_OF_PERICENTER":112.4783,"MEAN_ANOMALY":247.7749,"EPHEMERIS_TYPE":0,"CLASSIFICATION_TYPE":"U","NORAD_CAT_ID":24298,"ELEMENT_SET_NO":999,"REV_AT_EPOCH":52473,"BSTAR":0.00010702,"MEAN_MOTION_DOT":1.48e-6,"MEAN_MOTION_DDOT":0},{"OBJECT_NAME":"ORBVIEW 2 (SEASTAR)","OBJECT_ID":"1997-037A","EPOCH":"2026-03-31T17:20:17.622816","MEAN_MOTION":14.35510676,"ECCENTRICITY":0.0002256,"INCLINATION":98.8605,"RA_OF_ASC_NODE":255.6224,"ARG_OF_PERICENTER":22.6431,"MEAN_ANOMALY":337.4853,"EPHEMERIS_TYPE":0,"CLASSIFICATION_TYPE":"U","NORAD_CAT_ID":24883,"ELEMENT_SET_NO":999,"REV_AT_EPOCH":51163,"BSTAR":0.00014851,"MEAN_MOTION_DOT":3.81e-6,"MEAN_MOTION_DDOT":0},{"OBJECT_NAME":"SL-16 R/B","OBJECT_ID":"1998-043G","EPOCH":"2026-03-31T18:18:29.814912","MEAN_MOTION":14.26055031,"ECCENTRICITY":0.0009082,"INCLINATION":98.8292,"RA_OF_ASC_NODE":44.2878,"ARG_OF_PERICENTER":315.3646,"MEAN_ANOMALY":44.6801,"EPHEMERIS_TYPE":0,"CLASSIFICATION_TYPE":"U","NORAD_CAT_ID":25400,"ELEMENT_SET_NO":999,"REV_AT_EPOCH":44213,"BSTAR":5.6553e-5,"MEAN_MOTION_DOT":9.0e-7,"MEAN_MOTION_DDOT":0},{"OBJECT_NAME":"SL-16 R/B","OBJECT_ID":"1998-045B","EPOCH":"2026-03-31T07:52:28.716096","MEAN_MOTION":14.16193335,"ECCENTRICITY":0.0008087,"INCLINATION":71.0095,"RA_OF_ASC_NODE":136.0716,"ARG_OF_PERICENTER":335.4215,"MEAN_ANOMALY":24.6522,"EPHEMERIS_TYPE":0,"CLASSIFICATION_TYPE":"U","NORAD_CAT_ID":25407,"ELEMENT_SET_NO":999,"REV_AT_EPOCH":43016,"BSTAR":-5.5999392e-5,"MEAN_MOTION_DOT":-1.59e-6,"MEAN_MOTION_DDOT":0},{"OBJECT_NAME":"ISS (ZARYA)","OBJECT_ID":"1998-067A","EPOCH":"2026-03-31T20:13:47.748864","MEAN_MOTION":15.48686199,"ECCENTRICITY":0.000622,"INCLINATION":51.6336,"RA_OF_ASC_NODE":322.8401,"ARG_OF_PERICENTER":256.5772,"MEAN_ANOMALY":103.4524,"EPHEMERIS_TYPE":0,"CLASSIFICATION_TYPE":"U","NORAD_CAT_ID":25544,"ELEMENT_SET_NO":999,"REV_AT_EPOCH":55976,"BSTAR":0.00020301,"MEAN_MOTION_DOT":0.00010633,"MEAN_MOTION_DDOT":0},{"OBJECT_NAME":"CZ-4B R/B","OBJECT_ID":"1999-025C","EPOCH":"2026-03-31T21:50:27.024864","MEAN_MOTION":14.18269768,"ECCENTRICITY":0.0035969,"INCLINATION":98.658,"RA_OF_ASC_NODE":134.6607,"ARG_OF_PERICENTER":281.2679,"MEAN_ANOMALY":251.4831,"EPHEMERIS_TYPE":0,"CLASSIFICATION_TYPE":"U","NORAD_CAT_ID":25732,"ELEMENT_SET_NO":999,"REV_AT_EPOCH":39131,"BSTAR":6.2462e-5,"MEAN_MOTION_DOT":8.6e-7,"MEAN_MOTION_DDOT":0},{"OBJECT_NAME":"OKEAN-O","OBJECT_ID":"1999-039A","EPOCH":"2026-03-31T10:00:10.559232","MEAN_MOTION":14.80370806,"ECCENTRICITY":8.522e-5,"INCLINATION":97.9397,"RA_OF_ASC_NODE":150.0826,"ARG_OF_PERICENTER":97.6619,"MEAN_ANOMALY":262.469,"EPHEMERIS_TYPE":0,"CLASSIFICATION_TYPE":"U","NORAD_CAT_ID":25860,"ELEMENT_SET_NO":999,"REV_AT_EPOCH":43760,"BSTAR":0.00012733517,"MEAN_MOTION_DOT":9.2e-6,"MEAN_MOTION_DDOT":0},{"OBJECT_NAME":"SL-16 R/B","OBJECT_ID":"1999-039B","EPOCH":"2026-03-31T10:39:02.059776","MEAN_MOTION":14.8176182,"ECCENTRICITY":0.00147586,"INCLINATION":97.9919,"RA_OF_ASC_NODE":149.5029,"ARG_OF_PERICENTER":181.5878,"MEAN_ANOMALY":178.529,"EPHEMERIS_TYPE":0,"CLASSIFICATION_TYPE":"U","NORAD_CAT_ID":25861,"ELEMENT_SET_NO":999,"REV_AT_EPOCH":44008,"BSTAR":0.0001059212,"MEAN_MOTION_DOT":7.83e-6,"MEAN_MOTION_DDOT":0},{"OBJECT_NAME":"DELTA 2 R/B","OBJECT_ID":"1999-041E","EPOCH":"2026-03-31T17:46:52.203936","MEAN_MOTION":14.1188922,"ECCENTRICITY":0.050263,"INCLINATION":51.7608,"RA_OF_ASC_NODE":213.1914,"ARG_OF_PERICENTER":53.4574,"MEAN_ANOMALY":311.1556,"EPHEMERIS_TYPE":0,"CLASSIFICATION_TYPE":"U","NORAD_CAT_ID":25876,"ELEMENT_SET_NO":999,"REV_AT_EPOCH":36614,"BSTAR":0.00022214,"MEAN_MOTION_DOT":1.137e-5,"MEAN_MOTION_DDOT":0}]
